CCSDS_OMM_VERS = 2.0
CREATION_DATE  = 
ORIGINATOR     = 

OBJECT_NAME    = STARLINK-36556
OBJECT_ID      = 2026-020AB
CENTER_NAME    = EARTH
REF_FRAME      = TEME
TIME_SYSTEM    = UTC
MEAN_ELEMENT_THEORY = SGP/SGP4

EPOCH          = 2026-02-10T14:00:03.000384
MEAN_MOTION    = 15.82010091
ECCENTRICITY   = .00018676
INCLINATION    = 42.9991
RA_OF_ASC_NODE = 306.7262
ARG_OF_PERICENTER = 257.3605
MEAN_ANOMALY   = 332.6678

EPHEMERIS_TYPE = 0
CLASSIFICATION_TYPE = U
NORAD_CAT_ID   = 67642
ELEMENT_SET_NO = 999
REV_AT_EPOCH   = 303
BSTAR          = -.15172105E-3
MEAN_MOTION_DOT = -.32354E-3
MEAN_MOTION_DDOT = 0

CCSDS_OMM_VERS = 2.0
CREATION_DATE  = 
ORIGINATOR     = 

OBJECT_NAME    = STARLINK-36533
OBJECT_ID      = 2026-020AC
CENTER_NAME    = EARTH
REF_FRAME      = TEME
TIME_SYSTEM    = UTC
MEAN_ELEMENT_THEORY = SGP/SGP4

EPOCH          = 2026-02-10T14:00:03.000384
MEAN_MOTION    = 15.82235319
ECCENTRICITY   = .00021957
INCLINATION    = 42.9991
RA_OF_ASC_NODE = 306.7483
ARG_OF_PERICENTER = 251.8101
MEAN_ANOMALY   = 329.5152

EPHEMERIS_TYPE = 0
CLASSIFICATION_TYPE = U
NORAD_CAT_ID   = 67643
ELEMENT_SET_NO = 999
REV_AT_EPOCH   = 303
BSTAR          = -.95499387E-2
MEAN_MOTION_DOT = -.1790283E-1
MEAN_MOTION_DDOT = 0

CCSDS_OMM_VERS = 2.0
CREATION_DATE  = 
ORIGINATOR     = 

OBJECT_NAME    = STARLINK-36623
OBJECT_ID      = 2026-020AD
CENTER_NAME    = EARTH
REF_FRAME      = TEME
TIME_SYSTEM    = UTC
MEAN_ELEMENT_THEORY = SGP/SGP4

EPOCH          = 2026-02-10T14:00:03.000384
MEAN_MOTION    = 15.81986342
ECCENTRICITY   = .00018561
INCLINATION    = 42.9988
RA_OF_ASC_NODE = 306.7016
ARG_OF_PERICENTER = 253.0219
MEAN_ANOMALY   = 346.7401

EPHEMERIS_TYPE = 0
CLASSIFICATION_TYPE = U
NORAD_CAT_ID   = 67644
ELEMENT_SET_NO = 999
REV_AT_EPOCH   = 303
BSTAR          = .24372756E-3
MEAN_MOTION_DOT = .5102E-3
MEAN_MOTION_DDOT = 0

CCSDS_OMM_VERS = 2.0
CREATION_DATE  = 
ORIGINATOR     = 

OBJECT_NAME    = STARLINK-36619
OBJECT_ID      = 2026-020AE
CENTER_NAME    = EARTH
REF_FRAME      = TEME
TIME_SYSTEM    = UTC
MEAN_ELEMENT_THEORY = SGP/SGP4

EPOCH          = 2026-02-10T14:00:03.000384
MEAN_MOTION    = 15.82008084
ECCENTRICITY   = .000186
INCLINATION    = 42.9988
RA_OF_ASC_NODE = 306.7128
ARG_OF_PERICENTER = 250.4351
MEAN_ANOMALY   = 344.8462

EPHEMERIS_TYPE = 0
CLASSIFICATION_TYPE = U
NORAD_CAT_ID   = 67645
ELEMENT_SET_NO = 999
REV_AT_EPOCH   = 303
BSTAR          = -.6974624E-4
MEAN_MOTION_DOT = -.15189E-3
MEAN_MOTION_DDOT = 0

CCSDS_OMM_VERS = 2.0
CREATION_DATE  = 
ORIGINATOR     = 

OBJECT_NAME    = ALSAT-3B
OBJECT_ID      = 2026-021A
CENTER_NAME    = EARTH
REF_FRAME      = TEME
TIME_SYSTEM    = UTC
MEAN_ELEMENT_THEORY = SGP/SGP4

EPOCH          = 2026-02-10T14:08:29.078016
MEAN_MOTION    = 15.23533563
ECCENTRICITY   = .00116757
INCLINATION    = 97.4721
RA_OF_ASC_NODE = 116.0420
ARG_OF_PERICENTER = 226.0443
MEAN_ANOMALY   = 133.9832

EPHEMERIS_TYPE = 0
CLASSIFICATION_TYPE = U
NORAD_CAT_ID   = 67646
ELEMENT_SET_NO = 999
REV_AT_EPOCH   = 159
BSTAR          = .28501845E-3
MEAN_MOTION_DOT = .6749E-4
MEAN_MOTION_DDOT = 0

CCSDS_OMM_VERS = 2.0
CREATION_DATE  = 
ORIGINATOR     = 

OBJECT_NAME    = CZ-2C R/B
OBJECT_ID      = 2026-021B
CENTER_NAME    = EARTH
REF_FRAME      = TEME
TIME_SYSTEM    = UTC
MEAN_ELEMENT_THEORY = SGP/SGP4

EPOCH          = 2026-02-10T14:12:05.766624
MEAN_MOTION    = 15.23339687
ECCENTRICITY   = .01539525
INCLINATION    = 97.6561
RA_OF_ASC_NODE = 116.5141
ARG_OF_PERICENTER = 105.3427
MEAN_ANOMALY   = 256.4881

EPHEMERIS_TYPE = 0
CLASSIFICATION_TYPE = U
NORAD_CAT_ID   = 67647
ELEMENT_SET_NO = 999
REV_AT_EPOCH   = 157
BSTAR          = .42204944E-3
MEAN_MOTION_DOT = .13938E-3
MEAN_MOTION_DDOT = 0

CCSDS_OMM_VERS = 2.0
CREATION_DATE  = 
ORIGINATOR     = 

OBJECT_NAME    = STARLINK-36719
OBJECT_ID      = 2026-022A
CENTER_NAME    = EARTH
REF_FRAME      = TEME
TIME_SYSTEM    = UTC
MEAN_ELEMENT_THEORY = SGP/SGP4

EPOCH          = 2026-02-10T14:00:03.000384
MEAN_MOTION    = 15.92299808
ECCENTRICITY   = .00014191
INCLINATION    = 97.2838
RA_OF_ASC_NODE = 74.1458
ARG_OF_PERICENTER = 85.6795
MEAN_ANOMALY   = 25.0792

EPHEMERIS_TYPE = 0
CLASSIFICATION_TYPE = U
NORAD_CAT_ID   = 67648
ELEMENT_SET_NO = 999
REV_AT_EPOCH   = 253
BSTAR          = -.53522943E-2
MEAN_MOTION_DOT = -.1774467E-1
MEAN_MOTION_DDOT = .87408393E-3

CCSDS_OMM_VERS = 2.0
CREATION_DATE  = 
ORIGINATOR     = 

OBJECT_NAME    = STARLINK-36342
OBJECT_ID      = 2026-022B
CENTER_NAME    = EARTH
REF_FRAME      = TEME
TIME_SYSTEM    = UTC
MEAN_ELEMENT_THEORY = SGP/SGP4

EPOCH          = 2026-02-10T14:00:03.000384
MEAN_MOTION    = 15.92444767
ECCENTRICITY   = .00014281
INCLINATION    = 97.2835
RA_OF_ASC_NODE = 74.1466
ARG_OF_PERICENTER = 92.4604
MEAN_ANOMALY   = 20.8807

EPHEMERIS_TYPE = 0
CLASSIFICATION_TYPE = U
NORAD_CAT_ID   = 67649
ELEMENT_SET_NO = 999
REV_AT_EPOCH   = 253
BSTAR          = -.5307578E-2
MEAN_MOTION_DOT = -.1772857E-1
MEAN_MOTION_DDOT = .87389405E-3

CCSDS_OMM_VERS = 2.0
CREATION_DATE  = 
ORIGINATOR     = 

OBJECT_NAME    = STARLINK-36703
OBJECT_ID      = 2026-022C
CENTER_NAME    = EARTH
REF_FRAME      = TEME
TIME_SYSTEM    = UTC
MEAN_ELEMENT_THEORY = SGP/SGP4

EPOCH          = 2026-02-10T14:00:03.000384
MEAN_MOTION    = 15.92625381
ECCENTRICITY   = .00014736
INCLINATION    = 97.2834
RA_OF_ASC_NODE = 74.1481
ARG_OF_PERICENTER = 83.5855
MEAN_ANOMALY   = 32.9996

EPHEMERIS_TYPE = 0
CLASSIFICATION_TYPE = U
NORAD_CAT_ID   = 67650
ELEMENT_SET_NO = 999
REV_AT_EPOCH   = 253
BSTAR          = -.52245773E-2
MEAN_MOTION_DOT = -.1761628E-1
MEAN_MOTION_DDOT = .86520246E-3

CCSDS_OMM_VERS = 2.0
CREATION_DATE  = 
ORIGINATOR     = 

OBJECT_NAME    = STARLINK-36696
OBJECT_ID      = 2026-022D
CENTER_NAME    = EARTH
REF_FRAME      = TEME
TIME_SYSTEM    = UTC
MEAN_ELEMENT_THEORY = SGP/SGP4

EPOCH          = 2026-02-10T14:00:03.000384
MEAN_MOTION    = 15.92819925
ECCENTRICITY   = .00014789
INCLINATION    = 97.2831
RA_OF_ASC_NODE = 74.1494
ARG_OF_PERICENTER = 83.0552
MEAN_ANOMALY   = 36.9259

EPHEMERIS_TYPE = 0
CLASSIFICATION_TYPE = U
NORAD_CAT_ID   = 67651
ELEMENT_SET_NO = 999
REV_AT_EPOCH   = 253
BSTAR          = -.5152325E-2
MEAN_MOTION_DOT = -.1754923E-1
MEAN_MOTION_DDOT = .86078723E-3

CCSDS_OMM_VERS = 2.0
CREATION_DATE  = 
ORIGINATOR     = 

OBJECT_NAME    = STARLINK-36699
OBJECT_ID      = 2026-022E
CENTER_NAME    = EARTH
REF_FRAME      = TEME
TIME_SYSTEM    = UTC
MEAN_ELEMENT_THEORY = SGP/SGP4

EPOCH          = 2026-02-10T14:00:03.000384
MEAN_MOTION    = 15.92981993
ECCENTRICITY   = .00014503
INCLINATION    = 97.2831
RA_OF_ASC_NODE = 74.1507
ARG_OF_PERICENTER = 92.5025
MEAN_ANOMALY   = 30.4020

EPHEMERIS_TYPE = 0
CLASSIFICATION_TYPE = U
NORAD_CAT_ID   = 67652
ELEMENT_SET_NO = 999
REV_AT_EPOCH   = 253
BSTAR          = -.50819888E-2
MEAN_MOTION_DOT = -.1745675E-1
MEAN_MOTION_DDOT = .8537695E-3

CCSDS_OMM_VERS = 2.0
CREATION_DATE  = 
ORIGINATOR     = 

OBJECT_NAME    = STARLINK-36694
OBJECT_ID      = 2026-022F
CENTER_NAME    = EARTH
REF_FRAME      = TEME
TIME_SYSTEM    = UTC
MEAN_ELEMENT_THEORY = SGP/SGP4

EPOCH          = 2026-02-10T14:00:03.000384
MEAN_MOTION    = 15.93204658
ECCENTRICITY   = .00014553
INCLINATION    = 97.2829
RA_OF_ASC_NODE = 74.1525
ARG_OF_PERICENTER = 92.7038
MEAN_ANOMALY   = 33.9125

EPHEMERIS_TYPE = 0
CLASSIFICATION_TYPE = U
NORAD_CAT_ID   = 67653
ELEMENT_SET_NO = 999
REV_AT_EPOCH   = 253
BSTAR          = -.50344639E-2
MEAN_MOTION_DOT = -.1749432E-1
MEAN_MOTION_DDOT = .85915982E-3

