STARLINK-36556          
1 67642U 26020AB  26041.58336806 -.00032354  00000+0 -15172-3 0  9994
2 67642  42.9991 306.7262 0001867 257.3605 332.6678 15.82010091  3035
STARLINK-36533          
1 67643U 26020AC  26041.58336806 -.01790283  00000+0 -95499-2 0  9997
2 67643  42.9991 306.7483 0002195 251.8101 329.5152 15.82235319  3030
STARLINK-36623          
1 67644U 26020AD  26041.58336806  .00051020  00000+0  24373-3 0  9998
2 67644  42.9988 306.7016 0001856 253.0219 346.7401 15.81986342  3032
STARLINK-36619          
1 67645U 26020AE  26041.58336806 -.00015189  00000+0 -69746-4 0  9991
2 67645  42.9988 306.7128 0001860 250.4351 344.8462 15.82008084  3035
ALSAT-3B                
1 67646U 26021A   26041.58922544  .00006749  00000+0  28502-3 0  9997
2 67646  97.4721 116.0420 0011675 226.0443 133.9832 15.23533563  1596
CZ-2C R/B               
1 67647U 26021B   26041.59173341  .00013938  00000+0  42205-3 0  9996
2 67647  97.6561 116.5141 0153952 105.3427 256.4881 15.23339687  1576
STARLINK-36719          
1 67648U 26022A   26041.58336806 -.01774467  87408-3 -53523-2 0  9993
2 67648  97.2838  74.1458 0001419  85.6795  25.0792 15.92299808  2532
STARLINK-36342          
1 67649U 26022B   26041.58336806 -.01772857  87389-3 -53076-2 0  9996
2 67649  97.2835  74.1466 0001428  92.4604  20.8807 15.92444767  2530
STARLINK-36703          
1 67650U 26022C   26041.58336806 -.01761628  86520-3 -52246-2 0  9996
2 67650  97.2834  74.1481 0001473  83.5855  32.9996 15.92625381  2533
STARLINK-36696          
1 67651U 26022D   26041.58336806 -.01754923  86079-3 -51523-2 0  9993
2 67651  97.2831  74.1494 0001478  83.0552  36.9259 15.92819925  2534
STARLINK-36699          
1 67652U 26022E   26041.58336806 -.01745675  85377-3 -50820-2 0  9997
2 67652  97.2831  74.1507 0001450  92.5025  30.4020 15.92981993  2530
STARLINK-36694          
1 67653U 26022F   26041.58336806 -.01749432  85916-3 -50345-2 0  9994
2 67653  97.2829  74.1525 0001455  92.7038  33.9125 15.93204658  2530
